[{"OBJECT_NAME":"STARLINK-5262","OBJECT_ID":"2022-141BC","EPOCH":"2026-03-09T02:16:50.050272","MEAN_MOTION":15.08831755,"ECCENTRICITY":0.00012707,"INCLINATION":53.2185,"RA_OF_ASC_NODE":356.3971,"ARG_OF_PERICENTER":107.8011,"MEAN_ANOMALY":252.312,"EPHEMERIS_TYPE":0,"CLASSIFICATION_TYPE":"U","NORAD_CAT_ID":54207,"ELEMENT_SET_NO":999,"REV_AT_EPOCH":18591,"BSTAR":-4.3736485e-5,"MEAN_MOTION_DOT":-9.84e-6,"MEAN_MOTION_DDOT":0},{"OBJECT_NAME":"CZ-6A DEB","OBJECT_ID":"2022-151CR","EPOCH":"2026-03-09T17:17:08.438784","MEAN_MOTION":15.11778726,"ECCENTRICITY":0.00454354,"INCLINATION":98.5417,"RA_OF_ASC_NODE":160.2576,"ARG_OF_PERICENTER":86.1357,"MEAN_ANOMALY":274.5063,"EPHEMERIS_TYPE":0,"CLASSIFICATION_TYPE":"U","NORAD_CAT_ID":54346,"ELEMENT_SET_NO":999,"REV_AT_EPOCH":17769,"BSTAR":0.0041471579,"MEAN_MOTION_DOT":0.00073134,"MEAN_MOTION_DDOT":0}]
